#dP2020 12  4  0  0  0.00000000      97 __u+U IGS14 FIT  IAC
## 2134 432000.00000000   900.00000000 59187 0.0000000000000
+  121   C01C02C03C04C05C06C07C08C09C10C11C12C13C14C16C19C20
+        C21C22C23C24C25C26C27C28C29C30C32C33C34C35C36C37C38
+        C39C40C43C44C45C46C60E01E02E03E04E05E07E08E09E11E12
+        E13E14E15E18E19E21E24E25E26E27E30E31E33E36G01G02G03
+        G04G05G06G07G08G09G10G11G12G13G14G15G16G17G18G19G20
+        G21G22G23G24G25G26G27G28G29G30G31G32J01J02J03J07R01
+        R02R03R04R05R07R08R09R12R13R14R15R16R17R18R19R20R21
+        R22R24  0  0  0  0  0  0  0  0  0  0  0  0  0  0  0
++        13 14 13 13 13  8  8  8  8  8  7  8 11  7  8  7  7
++         7  8  7  7  7  7  7  7  7  7  7  8  8  8  8  7  9
++         9  9  9  9  9  9 18  4  4  4  4  4  4  4  4  4  4
++         4  4  4  4  4  4  4  4  4  4  4  4  4  4  3  3  4
++         3  3  3  3  3  3  3  4  3  3  3  3  3  3  3  3  3
++         4  4  3  3  3  3  3  3  3  3  3  3  8  8  8 14  6
++         5  5  5  5  6  5  6  5  6  5  5  6  5  5  6  6  5
++         6  6  0  0  0  0  0  0  0  0  0  0  0  0  0  0  0
%c M  cc GPS ccc cccc cccc cccc cccc ccccc ccccc ccccc ccccc
%c cc cc ccc ccc cccc cccc cccc cccc ccccc ccccc ccccc ccccc
%f  1.2500000  1.025000000  0.00000000000  0.000000000000000
%f  0.0000000  0.000000000  0.00000000000  0.000000000000000
%i    0    0    0    0      0      0      0      0         0
%i    0    0    0    0      0      0      0      0         0
/* INFORMATION & ANALYSIS CENTER (IAC)            FINAL DATA
/* S/V CLOCKS ARE ALIGNED TO GNSS TIME                      
/* G:C1WC2W R:C1PC2P E:C1XC5X C:C2IC6I J:C1CC2S             
/* PCV:IGS14_2134 OL/AL:FES2004  NONE     YN ORB:CoN CLK:CoN
*  2020 12 05  0  0  0.00000000
PC01 -34286.578150  24473.646334   -460.861115 999999.999999
PC02   4387.269248  41956.904112   1062.803003    693.019617
PC03 -14822.490564  39475.720448   1210.068527    239.339061
PC04 -39587.591995  14429.531623   -100.160471   -128.386052
PC05  21917.908189  36018.463823   1203.664167   -465.486997
PC06 -17466.479058  37989.262283   7513.628848     33.678109
PC07  -9773.523558  25558.081041 -31754.848825   -100.364109
PC08 -22517.801167  22471.096186  27583.514570   -760.788897
PC09  -7792.895063  40658.135521  -8830.133766    893.906945
PC10   5443.464329  32538.813633 -25817.566561   -128.968734
PC11 -18081.141014   5517.307279 -20439.934093   -795.955964
PC12  -9546.891817 -13611.215081 -22375.873001    647.336881
PC13  -7927.851105  24456.649856  33448.362199     38.629387
PC14 -19619.256791  -5384.600147  19140.289346   -383.574423
PC16 -15425.965475  39013.379098   5262.437367   -623.656298
PC19  15660.866673  -4747.078475 -22587.214244    642.237913
PC20  20304.152311  13403.278090 -13641.910481   -915.308437
PC21 -12988.499341 -24404.106975  -3861.468907   -743.340492
PC22   1832.251602 -20674.030075 -18671.235790   -806.838234
PC23 -11053.102229  15255.159216 -20579.171545   -900.043672
PC24 -25352.134254  -5869.654009  10030.470477   -726.064960
PC25 -25575.194742   7700.697654  -8047.034780   -850.267955
PC26 -11171.904369 -14273.007512  21203.125160    929.385212
PC27   2671.794305  21357.332345  17756.673768    443.966328
PC28 -11501.144033  25323.261663   2223.783658   -137.915554
PC29  18355.739915 -15160.407078  14559.370503    320.301977
PC30  15248.152552   4805.214825  22872.899172    412.984219
PC32  13129.946289  24310.570884   3909.248074   -882.652894
PC33 -15728.283542   4734.422213  22558.430052   -858.925307
PC34 -15572.359939  -4151.603989 -22785.010184   -793.739006
PC35  10785.711259 -25645.651503  -1955.009685   -528.658795
PC36  25890.341072  -6939.824243   7800.810326   -814.680096
PC37  10057.197151  14730.834086 -21447.888523   -867.654581
PC38 -19171.216810  24929.913747  28033.448026 999999.999999
PC39 -10647.296882  40807.036342   2153.009954     25.935747
PC40   -286.095431  28456.544798 -31032.373660    107.696229
PC43 -18561.659999  14669.091632 -14814.723771   -491.831286
PC44  -3340.378380 -21397.489582 -17583.673279    -82.281631
PC45  11000.958395 -15190.155768  20677.762795    299.914917
PC46  25766.597879   5263.555498  -9387.065685    514.207236
PC60   7304.409804  41528.554530    -88.604013     -0.842162
PE01  -5364.694046 -18594.626805  22400.210104   -996.636309
PE02   5517.863417  18617.543425 -22342.937497    181.275423
PE03   2198.618999  29440.428024   2041.154374   -372.409591
PE04 -13638.411110 -21296.000579  15379.419839   -661.374584
PE05 -10708.399329  20440.291962  18531.462784   -323.936666
PE07  17246.916996    404.707361 -24056.000336   -470.454269
PE08  13795.894776  20981.623563 -15670.823257   6081.887887
PE09 -17091.963569   -192.741405  24161.634835   5843.358089
PE11 -24836.074476   7151.533995 -14436.080320   6701.531123
PE12 -13132.802901 -10168.363385 -24494.624587   5473.310412
PE13  24698.434134  -6974.085151  14761.903859    407.754304
PE14   6663.995460 -26974.940872   2611.940168  -1248.433177
PE15  13205.595493   9995.348622  24545.343732    840.651966
PE18 -15790.340703  19926.977776 -14490.457841  -1364.008753
PE19   -648.193797 -29285.745317  -4247.159354    144.942662
PE21  15107.534089 -10496.043131  23195.069346   -635.525417
PE24 -27482.483203  -4435.290296 -10027.733505   -618.375051
PE25 -15250.655990  10389.620322 -23132.151088   -521.580390
PE26  21426.288314 -19976.026834  -4284.453968   2419.692176
PE27  27398.650880   3928.216905  10516.719019     79.023143
PE30  23022.419872  16370.729897  -8874.659830   3370.654063
PE31 -23504.239070 -15969.594635   8289.315610   -476.235246
PE33   6058.037099 -21072.883640 -19874.459612   -463.833697
PE36 -21656.912851  19834.371157   3704.023192    472.144940
PG01   3868.858277 -16610.244722 -20505.646668    799.978582
PG02 -21201.530321  15367.041046   5057.081870   -550.586150
PG03  -7330.503708 -19470.527203 -16650.589235    -21.368720
PG04    610.620649 -26193.069319   4205.614281   -161.442821
PG05 -12692.109701   9530.405264  21168.171810    -27.549532
PG06 -24609.283528   4451.703729  -8945.074430     -3.223305
PG07 -13379.486300 -10381.811639  20892.866338   -427.539278
PG08   5730.176361 -25270.222616   5124.750302     -1.732452
PG09  -8537.376572 -20527.762432  14451.726468   -297.576210
PG10  23351.813359  10657.587117  -7244.103710     -8.458208
PG11   8576.076908 -23384.649386 -10175.273272    -90.293571
PG12   3196.000597  19040.916477 -18543.707831     31.334845
PG13 -13088.808949  19647.646520  11916.631367     71.672204
PG14 -22473.772978 -13106.365303  -5361.292781     54.009603
PG15  -2581.125894  25918.589337   3724.306548   -185.489590
PG16  13331.802485  -7661.424476  21487.592201   -245.791158
PG17 -14150.348360  -3409.644453 -21781.582137    362.796265
PG18  14699.588859   8979.758742  20226.029609    329.115744
PG19 -15513.899166   4162.497803 -21419.488392    -69.570825
PG20  21159.231587  15444.473459   5101.409449    525.744718
PG21  12319.912215 -17961.233485 -14198.043648     74.598525
PG22    516.598287 -17068.443846 -20182.476336   -720.245509
PG23  20629.142758  16515.651326   2798.475207    107.255134
PG24  -7047.394684  18509.428907 -17738.443119      5.561556
PG25  15579.395647  19534.596431  -9643.798912     33.934638
PG26  21461.972171    584.184458  15759.203716      9.382905
PG27  12195.627047 -17630.629664  15299.068066    -27.986728
PG28 -21986.205719 -11634.842010  -8475.700715    647.252401
PG29   5305.381104  22116.791738  13644.303578   -249.681155
PG30 -21512.065011  -3356.130417  15405.735711   -346.918684
PG31  25405.897265  -5582.999000  -6545.941614    -85.595894
PG32  15051.662954   2785.372329 -21622.957085      5.759708
PJ01 -25993.153621  22654.909947  29251.641201   -335.218419
PJ02 -29462.428952  15077.863799 -21606.566486     -0.006110
PJ03 -23956.392038  32881.474073  -6629.163634     -3.928116
PJ07 -25348.782062  33692.401884     43.754627      0.063258
PR01   5345.038324 -13172.506100 -21189.501084     71.578265
PR02  -7367.706871 -23878.360727  -4924.724657    457.255642
PR03 -13754.763202 -17601.807920  12297.028256     26.760433
PR04 -12080.112288  -1568.459608  22428.244636     64.304123
PR05  -3746.246492  15408.927931  19990.911506     62.327580
PR07  13810.726808  17278.513211 -12718.394480    -41.661733
PR08  12178.264521   1570.723718 -22316.007148    -56.073768
PR09   6052.254857  11527.716073 -21905.466149     11.317718
PR12  13263.685748  -8079.159832  20271.145137    185.635897
PR13  -5780.790457 -11251.723082  22135.621832    -47.524769
PR14 -21733.529374  -7888.557151  10799.116488     58.424722
PR15 -24661.440579     29.377466  -6486.324064    106.465436
PR16 -12159.788560   8814.383685 -20599.602960     -8.832422
PR17  -8301.298683  -6526.183036 -23204.989015    379.635579
PR18 -16677.817981   9023.008558 -17066.353999     58.538603
PR19 -16846.248782  18983.131196  -2493.180157   -122.433625
PR20  -5996.762186  18777.422400  16224.743522   -428.113504
PR21   9019.176433   5457.713518  23234.574392   -170.868291
PR22  16926.487180  -9838.808631  16290.116437    -85.261955
PR24   4996.151519 -18745.975169 -16550.478192     22.914577
EOF
